{
  "norad_id": 59190,
  "name": "STARLINK-31563",
  "history": [
    {
      "epoch": "2026-03-28T17:11:45.342528Z",
      "apogee_km": 483.57487803755885,
      "perigee_km": 482.58425558964245,
      "latitude_deg": 6.564450219347803e-05,
      "longitude_deg": -99.18280474764072,
      "height_km": 482.7014352012523,
      "semi_major_axis_km": 6861.2165668136,
      "eccentricity": 7.219e-05,
      "inclination_deg": 43.0043,
      "raan_deg": 344.889,
      "arg_perigee_deg": 288.1998,
      "mean_anomaly_deg": 71.8776,
      "mean_motion_rev_day": 15.27569824
    },
    {
      "epoch": "2026-03-29T02:36:40.438368Z",
      "apogee_km": 483.9196743000912,
      "perigee_km": 482.1083304354661,
      "latitude_deg": -2.9347682163884068e-05,
      "longitude_deg": 116.9860550955465,
      "height_km": 482.76964088875195,
      "semi_major_axis_km": 6861.151002367778,
      "eccentricity": 0.000132,
      "inclination_deg": 43.0032,
      "raan_deg": 342.6742,
      "arg_perigee_deg": 271.3513,
      "mean_anomaly_deg": 88.7187,
      "mean_motion_rev_day": 15.2759172
    },
    {
      "epoch": "2026-03-30T00:34:56.819136Z",
      "apogee_km": 484.0763516568677,
      "perigee_km": 482.2183158592852,
      "latitude_deg": -3.5679919376305685e-05,
      "longitude_deg": 141.34706981116082,
      "height_km": 482.9401938786571,
      "semi_major_axis_km": 6861.284333758076,
      "eccentricity": 0.0001354,
      "inclination_deg": 43.0043,
      "raan_deg": 337.5058,
      "arg_perigee_deg": 269.0309,
      "mean_anomaly_deg": 91.0387,
      "mean_motion_rev_day": 15.27547193
    },
    {
      "epoch": "2026-03-30T00:34:56.820000Z",
      "apogee_km": 484.0766947210832,
      "perigee_km": 482.2179727950688,
      "latitude_deg": -3.176098944268071e-05,
      "longitude_deg": 141.34707038000974,
      "height_km": 482.9401996813582,
      "semi_major_axis_km": 6861.284333758076,
      "eccentricity": 0.00013545,
      "inclination_deg": 43.0043,
      "raan_deg": 337.5058,
      "arg_perigee_deg": 269.0309,
      "mean_anomaly_deg": 91.0387,
      "mean_motion_rev_day": 15.27547193
    },
    {
      "epoch": "2026-03-30T22:33:03.147264Z",
      "apogee_km": 483.7249367286822,
      "perigee_km": 482.14935966128996,
      "latitude_deg": 1.1208528584123161e-05,
      "longitude_deg": 165.74814253101007,
      "height_km": 483.0248543310336,
      "semi_major_axis_km": 6861.074148194985,
      "eccentricity": 0.00011482,
      "inclination_deg": 43.0035,
      "raan_deg": 332.3354,
      "arg_perigee_deg": 246.7514,
      "mean_anomaly_deg": 113.3217,
      "mean_motion_rev_day": 15.27617387
    },
    {
      "epoch": "2026-03-31T01:41:21.311520Z",
      "apogee_km": 483.7759709342681,
      "perigee_km": 482.06564644371883,
      "latitude_deg": 8.682564382724352e-06,
      "longitude_deg": 117.80556696210402,
      "height_km": 482.71525676795824,
      "semi_major_axis_km": 6861.057808688994,
      "eccentricity": 0.00012464,
      "inclination_deg": 43.0035,
      "raan_deg": 331.5974,
      "arg_perigee_deg": 268.8279,
      "mean_anomaly_deg": 91.243,
      "mean_motion_rev_day": 15.27622844
    },
    {
      "epoch": "2026-04-01T01:13:44.619168Z",
      "apogee_km": 484.20131438052886,
      "perigee_km": 481.9630474593296,
      "latitude_deg": 5.204983859728276e-06,
      "longitude_deg": 118.20460387210392,
      "height_km": 482.9824845675774,
      "semi_major_axis_km": 6861.219180919929,
      "eccentricity": 0.00016311,
      "inclination_deg": 43.0057,
      "raan_deg": 326.0603,
      "arg_perigee_deg": 263.7002,
      "mean_anomaly_deg": 96.3664,
      "mean_motion_rev_day": 15.27568951
    },
    {
      "epoch": "2026-04-02T21:10:06.852864Z",
      "apogee_km": 483.8531066603591,
      "perigee_km": 482.272286250296,
      "latitude_deg": -4.379346042006377e-05,
      "longitude_deg": 166.96708148222876,
      "height_km": 482.8397301256678,
      "semi_major_axis_km": 6861.199696455327,
      "eccentricity": 0.0001152,
      "inclination_deg": 43.0034,
      "raan_deg": 315.72,
      "arg_perigee_deg": 269.9886,
      "mean_anomaly_deg": 90.0833,
      "mean_motion_rev_day": 15.27575458
    },
    {
      "epoch": "2026-04-03T00:18:25.547616Z",
      "apogee_km": 483.5834238008583,
      "perigee_km": 482.5176069322215,
      "latitude_deg": -2.7460254578675596e-05,
      "longitude_deg": 119.02230948464262,
      "height_km": 482.72143429857266,
      "semi_major_axis_km": 6861.18751536654,
      "eccentricity": 7.767e-05,
      "inclination_deg": 43.0039,
      "raan_deg": 314.982,
      "arg_perigee_deg": 281.4379,
      "mean_anomaly_deg": 78.6385,
      "mean_motion_rev_day": 15.27579526
    },
    {
      "epoch": "2026-04-04T07:41:34.138464Z",
      "apogee_km": 483.9682716717534,
      "perigee_km": 482.1393526488637,
      "latitude_deg": 5.4102802525162574e-05,
      "longitude_deg": -0.4394648325874278,
      "height_km": 482.94711026715186,
      "semi_major_axis_km": 6861.190812160308,
      "eccentricity": 0.00013328,
      "inclination_deg": 43.0054,
      "raan_deg": 307.5949,
      "arg_perigee_deg": 262.7072,
      "mean_anomaly_deg": 97.3629,
      "mean_motion_rev_day": 15.27578425
    },
    {
      "epoch": "2026-04-05T07:13:54.992352Z",
      "apogee_km": 483.44657782490776,
      "perigee_km": 482.69458947373914,
      "latitude_deg": -3.314059149329061e-05,
      "longitude_deg": -0.03116780313281074,
      "height_km": 483.0726183393557,
      "semi_major_axis_km": 6861.207583649323,
      "eccentricity": 5.48e-05,
      "inclination_deg": 43.0012,
      "raan_deg": 302.0569,
      "arg_perigee_deg": 233.0367,
      "mean_anomaly_deg": 127.0434,
      "mean_motion_rev_day": 15.27572824
    },
    {
      "epoch": "2026-04-06T06:46:14.235744Z",
      "apogee_km": 486.5171240873369,
      "perigee_km": 479.61598832643176,
      "latitude_deg": 2.8882711869215187e-06,
      "longitude_deg": 0.37908868047825806,
      "height_km": 483.43236048141216,
      "semi_major_axis_km": 6861.203556206884,
      "eccentricity": 0.00050291,
      "inclination_deg": 43.013,
      "raan_deg": 296.514,
      "arg_perigee_deg": 260.228,
      "mean_anomaly_deg": 99.8004,
      "mean_motion_rev_day": 15.27574169
    },
    {
      "epoch": "2026-04-07T12:35:14.156160Z",
      "apogee_km": 483.94056161523804,
      "perigee_km": 482.2009709981685,
      "latitude_deg": 2.1061418488839855e-05,
      "longitude_deg": -95.11068973797947,
      "height_km": 483.23553421395104,
      "semi_major_axis_km": 6861.207766306703,
      "eccentricity": 0.00012677,
      "inclination_deg": 43.0012,
      "raan_deg": 289.4984,
      "arg_perigee_deg": 243.4917,
      "mean_anomaly_deg": 116.5805,
      "mean_motion_rev_day": 15.27572763
    },
    {
      "epoch": "2026-04-08T12:07:35.378976Z",
      "apogee_km": 483.9993196882888,
      "perigee_km": 482.1602391427341,
      "latitude_deg": 5.840141769736064e-06,
      "longitude_deg": -94.7057590903833,
      "height_km": 483.21010947060466,
      "semi_major_axis_km": 6861.216779415511,
      "eccentricity": 0.00013402,
      "inclination_deg": 43.0007,
      "raan_deg": 283.9585,
      "arg_perigee_deg": 247.3756,
      "mean_anomaly_deg": 112.6954,
      "mean_motion_rev_day": 15.27569753
    },
    {
      "epoch": "2026-04-09T21:04:52.184928Z",
      "apogee_km": 483.9676040721115,
      "perigee_km": 482.1480152085951,
      "latitude_deg": 4.192081319512046e-05,
      "longitude_deg": 121.86785036363149,
      "height_km": 483.1689657977389,
      "semi_major_axis_km": 6861.194809640353,
      "eccentricity": 0.0001326,
      "inclination_deg": 43.0029,
      "raan_deg": 276.2055,
      "arg_perigee_deg": 248.4403,
      "mean_anomaly_deg": 111.6308,
      "mean_motion_rev_day": 15.2757709
    },
    {
      "epoch": "2026-04-11T12:18:47.347200Z",
      "apogee_km": 483.900634688368,
      "perigee_km": 482.23747834026835,
      "latitude_deg": 1.1709739185737143e-05,
      "longitude_deg": -117.45482874656649,
      "height_km": 483.0453969413583,
      "semi_major_axis_km": 6861.206056514318,
      "eccentricity": 0.0001212,
      "inclination_deg": 43.001,
      "raan_deg": 266.9739,
      "arg_perigee_deg": 256.1017,
      "mean_anomaly_deg": 103.97,
      "mean_motion_rev_day": 15.27573334
    },
    {
      "epoch": "2026-04-13T03:32:41.673120Z",
      "apogee_km": 484.0077046403703,
      "perigee_km": 482.1208742857689,
      "latitude_deg": 6.163075868299035e-05,
      "longitude_deg": 3.227174288181967,
      "height_km": 482.8591359475469,
      "semi_major_axis_km": 6861.20128946307,
      "eccentricity": 0.0001375,
      "inclination_deg": 43.0025,
      "raan_deg": 257.7434,
      "arg_perigee_deg": 268.9131,
      "mean_anomaly_deg": 91.1564,
      "mean_motion_rev_day": 15.27574926
    },
    {
      "epoch": "2026-04-14T10:55:50.085984Z",
      "apogee_km": 483.97320815625517,
      "perigee_km": 482.1770800411723,
      "latitude_deg": 1.6175357355200495e-05,
      "longitude_deg": -116.23309026896969,
      "height_km": 482.88777048443586,
      "semi_major_axis_km": 6861.212144098713,
      "eccentricity": 0.00013089,
      "inclination_deg": 43.0022,
      "raan_deg": 250.3572,
      "arg_perigee_deg": 267.7178,
      "mean_anomaly_deg": 92.3524,
      "mean_motion_rev_day": 15.27571301
    },
    {
      "epoch": "2026-04-14T20:20:46.209120Z",
      "apogee_km": 483.90048729766477,
      "perigee_km": 482.2400751356099,
      "latitude_deg": -1.0004908822167104e-05,
      "longitude_deg": 99.9313514741226,
      "height_km": 482.8867728807062,
      "semi_major_axis_km": 6861.207281216637,
      "eccentricity": 0.000121,
      "inclination_deg": 43.0027,
      "raan_deg": 248.1422,
      "arg_perigee_deg": 267.2623,
      "mean_anomaly_deg": 92.809,
      "mean_motion_rev_day": 15.27572925
    }
  ]
}